[{"OBJECT_NAME":"STARLINK-3937","OBJECT_ID":"2022-051K","EPOCH":"2026-03-09T13:09:21.906144","MEAN_MOTION":15.08835134,"ECCENTRICITY":0.0001394,"INCLINATION":53.2174,"RA_OF_ASC_NODE":129.756,"ARG_OF_PERICENTER":88.4128,"MEAN_ANOMALY":271.7023,"EPHEMERIS_TYPE":0,"CLASSIFICATION_TYPE":"U","NORAD_CAT_ID":52542,"ELEMENT_SET_NO":999,"REV_AT_EPOCH":21142,"BSTAR":7.7679e-5,"MEAN_MOTION_DOT":9.48e-6,"MEAN_MOTION_DDOT":0},{"OBJECT_NAME":"CZ-6A DEB","OBJECT_ID":"2022-151EL","EPOCH":"2026-03-09T12:09:26.951616","MEAN_MOTION":14.86893831,"ECCENTRICITY":0.00944101,"INCLINATION":98.6325,"RA_OF_ASC_NODE":168.3306,"ARG_OF_PERICENTER":70.5159,"MEAN_ANOMALY":290.6224,"EPHEMERIS_TYPE":0,"CLASSIFICATION_TYPE":"U","NORAD_CAT_ID":54412,"ELEMENT_SET_NO":999,"REV_AT_EPOCH":17774,"BSTAR":0.0014840705,"MEAN_MOTION_DOT":0.00014338,"MEAN_MOTION_DDOT":0}]
